[{"OBJECT_NAME":"LYNK TOWER 4","OBJECT_ID":"2023-001AB","EPOCH":"2026-03-09T16:15:30.644928","MEAN_MOTION":15.31819885,"ECCENTRICITY":0.00103213,"INCLINATION":97.3324,"RA_OF_ASC_NODE":128.594,"ARG_OF_PERICENTER":112.3386,"MEAN_ANOMALY":247.895,"EPHEMERIS_TYPE":0,"CLASSIFICATION_TYPE":"U","NORAD_CAT_ID":55034,"ELEMENT_SET_NO":999,"REV_AT_EPOCH":17658,"BSTAR":0.00030013829,"MEAN_MOTION_DOT":9.16e-5,"MEAN_MOTION_DDOT":0},{"OBJECT_NAME":"STARLINK-30934","OBJECT_ID":"2023-178X","EPOCH":"2026-03-09T03:12:45.205056","MEAN_MOTION":15.30187998,"ECCENTRICITY":0.00010009,"INCLINATION":53.1615,"RA_OF_ASC_NODE":3.9148,"ARG_OF_PERICENTER":102.8812,"MEAN_ANOMALY":257.23,"EPHEMERIS_TYPE":0,"CLASSIFICATION_TYPE":"U","NORAD_CAT_ID":58395,"ELEMENT_SET_NO":999,"REV_AT_EPOCH":12973,"BSTAR":-2.7036206e-5,"MEAN_MOTION_DOT":-1.159e-5,"MEAN_MOTION_DDOT":0}]
